ISS OBJECT XT           
1 66907U 98067XT  26095.81394862  .00323618  00000+0  15655-2 0  9997
2 66907  51.6217 286.2314 0007627 257.9679 102.0469 15.81038991 19451
ISS OBJECT XU           
1 66908U 98067XU  26095.80859487  .00317413  00000+0  15091-2 0  9996
2 66908  51.6224 286.1920 0007804 256.8765 103.1367 15.81429806 19451
SILVERSAT               
1 66909U 98067XV  26095.73059919  .00511697  10942-3  17462-2 0  9995
2 66909  51.6180 284.8979 0009440 264.4078  95.5851 15.89127269 19461
ISS OBJECT XW           
1 66910U 98067XW  26095.76678366  .00265460  00000+0  14295-2 0  9998
2 66910  51.6196 286.6599 0007677 253.0200 106.9959 15.78843649 19448
ISS OBJECT XX           
1 66911U 98067XX  26095.75372862  .01217551  79992-3  21131-2 0  9996
2 66911  51.6135 282.7499 0012061 272.1994  87.7635 16.01632842 19482
ISS OBJECT XY           
1 66912U 98067XY  26095.82166627  .00142970  00000+0  11568-2 0  9999
2 66912  51.6244 289.3172 0005290 250.7234 109.3192 15.69823635 19406
KNACKSAT-2              
1 67683U 98067XZ  26095.81892939  .00047225  00000+0  71168-3 0  9996
2 67683  51.6317 296.8195 0010840 286.1763  73.8034 15.54247426  9005
CORAL                   
1 67684U 98067YA  26095.72744007  .00105757  00000+0  12984-2 0  9994
2 67684  51.6287 296.2079 0013728 276.4839  83.4591 15.59362518  9001
GXIBA-1                 
1 67685U 98067YB  26095.80589156  .00053148  00000+0  78016-3 0  9991
2 67685  51.6302 296.7324 0012597 283.2994  76.6592 15.54892116  9001
UITMSAT-2               
1 67686U 98067YC  26095.85007678  .00060650  00000+0  85196-3 0  9994
2 67686  51.6301 296.2798 0009711 258.0016 101.9887 15.56068312  9015
HMU-SAT2                
1 67687U 98067YD  26095.81217735  .00052169  00000+0  77513-3 0  9998
2 67687  51.6312 296.7780 0009202 261.2680  98.7269 15.54611273  8926
LEOPARD                 
1 67688U 98067YE  26095.85923402  .00054045  00000+0  77581-3 0  9998
2 67688  51.6303 296.3413 0009334 258.5898 101.4045 15.55534164  8931
CREW DRAGON 12          
1 67796U 26031A   26095.81141530  .00008309  00000+0  15990-3 0  9998
2 67796  51.6329 298.2672 0006355 276.3215  83.7049 15.48791307560528
PROGRESS-MS 33          
1 68319U 26058A   26095.81141530  .00008309  00000+0  15990-3 0  9999
2 68319  51.6329 298.2672 0006355 276.3215  83.7049 15.48791307  2037
